NORAD_CAT_ID,OBJECT_NAME,OBJECT_TYPE,EPOCH,MEAN_MOTION,ECCENTRICITY,INCLINATION,RA_OF_ASC_NODE,ARG_OF_PERICENTER,MEAN_ANOMALY,BSTAR,MEAN_MOTION_DOT,MEAN_MOTION_DDOT,TLE_LINE0,TLE_LINE1,TLE_LINE2,SEMIMAJOR_AXIS,PERIOD,APOGEE,PERIGEE,DECAYED
56807.0,STARLINK-6073,PAYLOAD,2024-02-02 10:59:27,14.98330288,0.0002691,70.0002,96.2315,254.3472,105.739,2.5845e-05,2.15e-06,0.0,0 STARLINK-6073,1 56807U 23078AS  24033.45796016  .00000215  00000-0  25845-4 0  9992,2 56807  70.0002  96.2315 0002691 254.3472 105.7390 14.98330288 38662,6950.192,96.107,573.927,570.187,0.0
56807.0,STARLINK-6073,PAYLOAD,2024-02-02 14:11:43,14.98329934,0.0002793,69.9998,95.894,261.2005,98.8838,7.5704e-05,8.1e-06,0.0,0 STARLINK-6073,1 56807U 23078AS  24033.59147917  .00000810  00000-0  75704-4 0  9997,2 56807  69.9998  95.8940 0002793 261.2005  98.8838 14.98329934 38423,6950.193,96.107,573.999,570.117,0.0
56807.0,STARLINK-6073,PAYLOAD,2024-02-03 11:01:29,14.98326528,0.0002669,70.0001,93.7061,255.1433,104.943,-4.785e-05,-6.64e-06,0.0,0 STARLINK-6073,1 56807U 23078AS  24034.45936421 -.00000664  00000-0 -47850-4 0  9999,2 56807  70.0001  93.7061 0002669 255.1433 104.9430 14.98326528 38817,6950.204,96.107,573.924,570.214,0.0
56807.0,STARLINK-6073,PAYLOAD,2024-02-03 12:37:37,14.98326171,0.0002681,70.0,93.5375,257.012,103.074,-4.963e-05,-6.85e-06,0.0,0 STARLINK-6073,1 56807U 23078AS  24034.52612469 -.00000685  00000-0 -49630-4 0  9991,2 56807  70.0000  93.5375 0002681 257.0120 103.0740 14.98326171 38560,6950.205,96.107,573.933,570.206,0.0
56807.0,STARLINK-6073,PAYLOAD,2024-02-03 14:13:45,14.98326702,0.0002684,69.9999,93.3686,259.5478,100.5379,-4.2051e-05,-5.95e-06,0.0,0 STARLINK-6073,1 56807U 23078AS  24034.59288438 -.00000595  00000-0 -42051-4 0  9993,2 56807  69.9999  93.3686 0002684 259.5478 100.5379 14.98326702 38574,6950.203,96.107,573.934,570.203,0.0
56807.0,STARLINK-6073,PAYLOAD,2024-02-04 12:39:37,14.98335404,0.0002776,69.9996,91.0115,263.1259,96.9584,2.7545e-05,2.36e-06,0.0,0 STARLINK-6073,1 56807U 23078AS  24035.52751546  .00000236  00000-0  27545-4 0  9993,2 56807  69.9996  91.0115 0002776 263.1259  96.9584 14.98335404 38972,6950.176,96.107,573.971,570.112,0.0
56807.0,STARLINK-6073,PAYLOAD,2024-02-05 11:05:30,14.98327921,0.0002912,69.9992,88.6541,265.772,94.3106,1.2558e-05,5.7e-07,0.0,0 STARLINK-6073,1 56807U 23078AS  24036.46215925  .00000057  00000-0  12558-4 0  9992,2 56807  69.9992  88.6541 0002912 265.7720  94.3106 14.98327921 39110,6950.199,96.107,574.088,570.04,0.0
56807.0,STARLINK-6073,PAYLOAD,2024-02-05 12:41:38,14.98328791,0.0002905,69.9992,88.4858,266.2597,93.823,2.1844e-05,1.68e-06,0.0,0 STARLINK-6073,1 56807U 23078AS  24036.52891850  .00000168  00000-0  21844-4 0  9997,2 56807  69.9992  88.4858 0002905 266.2597  93.8230 14.98328791 38868,6950.197,96.107,574.081,570.043,0.0
56807.0,STARLINK-6073,PAYLOAD,2024-02-06 11:07:31,14.9833185,0.0002884,69.9993,86.129,265.3357,94.7473,-4.807e-05,-6.67e-06,0.0,0 STARLINK-6073,1 56807U 23078AS  24037.46355782 -.00000667  00000-0 -48070-4 0  9996,2 56807  69.9993  86.1290 0002884 265.3357  94.7473 14.98331850 39268,6950.187,96.107,574.057,570.048,0.0
56807.0,STARLINK-6073,PAYLOAD,2024-02-06 12:43:39,14.98332455,0.0002927,69.9992,85.9607,266.5859,93.4965,-4.4567e-05,-6.25e-06,0.0,0 STARLINK-6073,1 56807U 23078AS  24037.53031726 -.00000625  00000-0 -44567-4 0  9994,2 56807  69.9992  85.9607 0002927 266.5859  93.4965 14.98332455 39011,6950.185,96.107,574.085,570.016,0.0
56807.0,STARLINK-6073,PAYLOAD,2024-02-07 11:09:32,14.98330852,0.0002966,69.9992,83.6044,267.8401,92.2418,2.3143e-05,1.83e-06,0.0,0 STARLINK-6073,1 56807U 23078AS  24038.46495580  .00000183  00000-0  23143-4 0  9993,2 56807  69.9992  83.6044 0002966 267.8401  92.2418 14.98330852 39414,6950.19,96.107,574.117,569.994,0.0
56807.0,STARLINK-6073,PAYLOAD,2024-02-07 12:45:40,14.98331496,0.000296,69.9992,83.4362,267.8963,92.1857,3.0289e-05,2.68e-06,0.0,0 STARLINK-6073,1 56807U 23078AS  24038.53171516  .00000268  00000-0  30289-4 0  9994,2 56807  69.9992  83.4362 0002960 267.8963  92.1857 14.98331496 39165,6950.188,96.107,574.111,569.996,0.0
56807.0,STARLINK-6073,PAYLOAD,2024-02-07 20:46:20,14.98329214,0.0002944,69.9993,82.5931,269.4677,90.6145,2.9298e-06,-5.8e-07,0.0,0 STARLINK-6073,1 56807U 23078AS  24038.86551722 -.00000058  00000-0  29298-5 0  9998,2 56807  69.9993  82.5931 0002944 269.4677  90.6145 14.98329214 39214,6950.195,96.107,574.106,570.014,0.0
56807.0,STARLINK-6073,PAYLOAD,2024-02-08 11:11:32,14.98334095,0.0003008,69.999,81.0787,270.1373,89.9442,4.6999e-05,4.68e-06,0.0,0 STARLINK-6073,1 56807U 23078AS  24039.46635250  .00000468  00000-0  46999-4 0  9994,2 56807  69.9990  81.0787 0003008 270.1373  89.9442 14.98334095 39560,6950.18,96.107,574.136,569.955,0.0
56807.0,STARLINK-6073,PAYLOAD,2024-02-08 12:47:40,14.98334799,0.0003,69.999,80.9103,270.1384,89.9431,5.4577e-05,5.58e-06,0.0,0 STARLINK-6073,1 56807U 23078AS  24039.53311167  .00000558  00000-0  54577-4 0  9991,2 56807  69.9990  80.9103 0003000 270.1384  89.9431 14.98334799 39316,6950.178,96.107,574.128,569.958,0.0
56807.0,STARLINK-6073,PAYLOAD,2024-02-09 03:12:54,14.98326834,0.0002819,69.9994,79.3953,266.3643,93.7194,-4.5384e-05,-6.34e-06,0.0,0 STARLINK-6073,1 56807U 23078AS  24040.13395934 -.00000634  00000-0 -45384-4 0  9996,2 56807  69.9994  79.3953 0002819 266.3643  93.7194 14.98326834 39665,6950.203,96.107,574.027,570.108,0.0
56807.0,STARLINK-6073,PAYLOAD,2024-02-09 12:49:42,14.98330312,0.0002807,69.9992,78.3853,266.8501,93.2337,-6.1568e-06,-1.66e-06,0.0,0 STARLINK-6073,1 56807U 23078AS  24040.53451632 -.00000166  00000-0 -61568-5 0  9991,2 56807  69.9992  78.3853 0002807 266.8501  93.2337 14.98330312 39464,6950.192,96.107,574.008,570.106,0.0
56807.0,STARLINK-6073,PAYLOAD,2024-02-10 03:14:55,14.98327043,0.0002813,69.9997,76.8709,271.7026,88.381,-1.9499e-05,-3.26e-06,0.0,0 STARLINK-6073,1 56807U 23078AS  24041.13535936 -.00000326  00000-0 -19499-4 0  9991,2 56807  69.9997  76.8709 0002813 271.7026  88.3810 14.98327043 39813,6950.202,96.107,574.022,570.112,0.0
56807.0,STARLINK-6073,PAYLOAD,2024-02-10 11:15:35,14.98326736,0.0002653,69.9997,76.029,267.0325,93.0531,-2.0215e-05,-3.34e-06,0.0,0 STARLINK-6073,1 56807U 23078AS  24041.46915997 -.00000334  00000-0 -20215-4 0  9993,2 56807  69.9997  76.0290 0002653 267.0325  93.0531 14.98326736 39600,6950.203,96.107,573.912,570.224,0.0
56807.0,STARLINK-6073,PAYLOAD,2024-02-11 03:16:55,14.98329974,0.0002766,69.9993,74.3456,263.8603,96.2241,5.9272e-05,6.14e-06,0.0,0 STARLINK-6073,1 56807U 23078AS  24042.13675488  .00000614  00000-0  59272-4 0  9990,2 56807  69.9993  74.3456 0002766 263.8603  96.2241 14.98329974 39968,6950.193,96.107,573.98,570.136,0.0
56807.0,STARLINK-6073,PAYLOAD,2024-02-11 12:53:43,14.9833314,0.0002744,69.9995,73.3356,262.9115,97.1732,6.1601e-05,6.42e-06,0.0,0 STARLINK-6073,1 56807U 23078AS  24042.53731228  .00000642  00000-0  61601-4 0  9999,2 56807  69.9995  73.3356 0002744 262.9115  97.1732 14.98333140 39765,6950.183,96.107,573.955,570.141,0.0
56807.0,STARLINK-6073,PAYLOAD,2024-02-12 03:18:56,14.98329439,0.0002673,69.9997,71.8209,259.3439,100.7419,3.4963e-05,3.24e-06,0.0,0 STARLINK-6073,1 56807U 23078AS  24043.13815454  .00000324  00000-0  34963-4 0  9998,2 56807  69.9997  71.8209 0002673 259.3439 100.7419 14.98329439 40117,6950.195,96.107,573.917,570.202,0.0
56807.0,STARLINK-6073,PAYLOAD,2024-02-12 11:19:36,14.98329844,0.0002655,69.9999,70.9797,258.871,101.215,3.6637e-05,3.44e-06,0.0,0 STARLINK-6073,1 56807U 23078AS  24043.47195411  .00000344  00000-0  36637-4 0  9991,2 56807  69.9999  70.9797 0002655 258.8710 101.2150 14.98329844 39900,6950.193,96.107,573.904,570.213,0.0
56807.0,STARLINK-6073,PAYLOAD,2024-02-13 03:21:04,14.98259919,0.000266,70.0003,69.2978,262.3422,97.7435,-0.00076482,-9.19e-05,0.0,0 STARLINK-6073,1 56807U 23078AS  24044.13963112 -.00009190  00000-0 -76482-3 0  9997,2 56807  70.0003  69.2978 0002660 262.3422  97.7435 14.98259919 40268,6950.41,96.111,574.123,570.426,0.0
56807.0,STARLINK-6073,PAYLOAD,2024-02-13 11:21:39,14.98326759,0.0002936,69.9992,68.4549,265.6357,94.4467,-3.1067e-05,-4.64e-06,0.0,0 STARLINK-6073,1 56807U 23078AS  24044.47337517 -.00000464  00000-0 -31067-4 0  9994,2 56807  69.9992  68.4549 0002936 265.6357  94.4467 14.98326759 40318,6950.203,96.107,574.108,570.027,0.0
56807.0,STARLINK-6073,PAYLOAD,2024-02-13 19:22:19,14.98329365,0.0002842,69.9991,67.6123,268.6782,91.4052,3.2752e-05,2.98e-06,0.0,0 STARLINK-6073,1 56807U 23078AS  24044.80717296  .00000298  00000-0  32752-4 0  9992,2 56807  69.9991  67.6123 0002842 268.6782  91.4052 14.98329365 40107,6950.195,96.107,574.035,570.085,0.0
56807.0,STARLINK-6073,PAYLOAD,2024-02-14 04:59:07,14.98336237,0.0003115,69.9985,66.6014,272.3243,87.7559,0.00010347,1.142e-05,0.0,0 STARLINK-6073,1 56807U 23078AS  24045.20772682  .00001142  00000-0  10347-3 0  9991,2 56807  69.9985  66.6014 0003115 272.3243  87.7559 14.98336237 40427,6950.174,96.107,574.204,569.874,0.0
56807.0,STARLINK-6073,PAYLOAD,2024-02-14 11:23:39,14.98343128,0.0003014,69.9988,65.9281,272.3809,87.7005,0.00018493,2.115e-05,0.0,0 STARLINK-6073,1 56807U 23078AS  24045.47475936  .00002115  00000-0  18493-3 0  9993,2 56807  69.9988  65.9281 0003014 272.3809  87.7005 14.98343128 40461,6950.152,96.106,574.112,569.923,0.0
56807.0,STARLINK-6073,PAYLOAD,2024-02-15 03:25:00,14.98301049,0.0002745,69.9988,64.2447,268.0179,92.0665,0.00081922,9.688e-05,0.0,0 STARLINK-6073,1 56807U 23078AS  24046.14236954  .00009688  00000-0  81922-3 0  9992,2 56807  69.9988  64.2447 0002745 268.0179  92.0665 14.98301049 40567,6950.282,96.109,574.055,570.24,0.0
56807.0,STARLINK-6073,PAYLOAD,2024-02-15 11:25:40,14.98312134,0.0002704,69.9989,63.403,267.3725,92.7125,0.00082343,9.741e-05,0.0,0 STARLINK-6073,1 56807U 23078AS  24046.47616578  .00009741  00000-0  82343-3 0  9990,2 56807  69.9989  63.4030 0002704 267.3725  92.7125 14.98312134 40612,6950.248,96.108,573.992,570.234,0.0
